     2.100          NAVIGATION                              RINEX VERSION / TYPE
fic2rin                                 01/01/2018 00:10:08 PGM / RUN BY / DATE
                                                            END OF HEADER
 9 17 12 31 11 59 44.0  .488704536110D-03  .363797880709D-11  .000000000000D+00
     .200000000000D+01 -.345000000000D+02  .491520473801D-08  .186810922910D-01
    -.184960663319D-05  .114704121370D-02  .820681452751D-05  .515370289612D+04
     .431840000000D+05 -.782310962677D-07  .196187318595D+01 -.409781932831D-07
     .952598962039D+00  .216250000000D+03  .173766273747D+01 -.812640992616D-08
    -.719672834405D-09  .100000000000D+01  .198200000000D+04  .000000000000D+00
     .240000000000D+01  .000000000000D+00  .931322574615D-09  .200000000000D+01
     .360060000000D+05  .400000000000D+01
10 17 12 31 11 59 44.0  .138670206070D-03  .613908923697D-11  .000000000000D+00
     .100000000000D+01  .214062500000D+02  .510056960205D-08  .186446676497D+01
     .119209289551D-05  .310917850584D-02  .605173408985D-05  .515365739250D+04
     .431840000000D+05 -.223517417908D-07  .923189598049D+00  .987201929092D-07
     .960358023521D+00  .264062500000D+03 -.287471774710D+01 -.825391523727D-08
     .406802659249D-09  .100000000000D+01  .198200000000D+04  .000000000000D+00
     .240000000000D+01  .000000000000D+00  .186264514923D-08  .100000000000D+01
     .360060000000D+05  .400000000000D+01
11 17 12 31 11 59 44.0 -.732547137886D-03 -.125055521494D-11  .000000000000D+00
     .300000000000D+01 -.139062500000D+03  .540165357198D-08 -.309955493748D+01
    -.717677175999D-05  .167964374414D-01  .104364007711D-04  .515375721741D+04
     .431840000000D+05  .266358256340D-06 -.532543303480D+00  .106170773506D-06
     .903870808064D+00  .142468750000D+03  .172937182627D+01 -.814319633967D-08
     .857178562071D-10  .100000000000D+01  .198200000000D+04  .000000000000D+00
     .240000000000D+01  .000000000000D+00 -.121071934700D-07  .300000000000D+01
     .360060000000D+05  .400000000000D+01
17 17 12 31 11 59 44.0 -.134310685098D-03  .272848410532D-11  .000000000000D+00
     .200000000000D+01 -.125781250000D+03  .415588739511D-08 -.288483066718D+00
    -.667572021484D-05  .123384128092D-01  .537559390068D-05  .515374157524D+04
     .431840000000D+05 -.150874257088D-06 -.111900651237D+01  .968575477600D-07
     .981626540983D+00  .290687500000D+03 -.181109641205D+01 -.827570185906D-08
    -.229295265354D-09  .100000000000D+01  .198200000000D+04  .000000000000D+00
     .240000000000D+01  .000000000000D+00 -.111758708954D-07  .200000000000D+01
     .360060000000D+05  .400000000000D+01
 1 17 12 31 12  0  0.0 -.206278637052D-04 -.272848410532D-11  .000000000000D+00
     .860000000000D+02 -.709375000000D+02  .405374028313D-08 -.242278110105D+01
    -.377185642719D-05  .722242391203D-02  .124722719193D-04  .515367970467D+04
     .432000000000D+05  .875443220139D-07 -.115589075138D+00 -.143423676491D-06
     .970110212870D+00  .143343750000D+03  .623160955098D+00 -.756138639067D-08
     .500020827875D-09  .100000000000D+01  .198200000000D+04  .000000000000D+00
     .240000000000D+01  .000000000000D+00  .558793544769D-08  .860000000000D+02
     .360060000000D+05  .400000000000D+01
 2 17 12 31 12  0  0.0  .240871217102D-03 -.101181285572D-10  .000000000000D+00
     .800000000000D+02 -.552812500000D+02  .450661629009D-08 -.200943767490D+01
    -.286474823952D-05  .175373764941D-01  .120270997286D-04  .515365476227D+04
     .432000000000D+05  .277534127235D-06 -.173569777809D+00 -.316649675369D-07
     .949121563340D+00  .135906250000D+03 -.191994271782D+01 -.761710299720D-08
     .480377152494D-09  .100000000000D+01  .198200000000D+04  .000000000000D+00
     .240000000000D+01  .000000000000D+00 -.204890966415D-07  .800000000000D+02
     .360060000000D+05  .400000000000D+01
 3 17 12 31 12  0  0.0 -.180141068995D-04  .648014975013D-11  .000000000000D+00
     .510000000000D+02  .258750000000D+02  .497520723735D-08  .283105624312D+01
     .128708779812D-05  .116658897605D-02  .610575079918D-05  .515357651329D+04
     .432000000000D+05 -.502914190292D-07  .926742483321D+00 -.260770320892D-07
     .960232718736D+00  .259406250000D+03  .572427390596D+00 -.813712465819D-08
     .417160233541D-09  .100000000000D+01  .198200000000D+04  .000000000000D+00
     .240000000000D+01  .000000000000D+00  .232830643654D-08  .510000000000D+02
     .360060000000D+05  .400000000000D+01
 4 17 12 31 12  0  0.0  .297152437270D-04  .204636307899D-11  .000000000000D+00
     .420000000000D+02  .884375000000D+02  .567809365825D-08  .992329254039D+00
     .456720590591D-05  .930766074453D-02  .763684511185D-06  .515366442490D+04
     .432000000000D+05 -.117346644402D-06 -.218812240241D+01  .167638063431D-07
     .980325993644D+00  .375062500000D+03  .893631247557D+00 -.855607068040D-08
     .188222125921D-09  .100000000000D+01  .198200000000D+04  .000000000000D+00
     .340000000000D+01  .630000000000D+02 -.195577740669D-07  .420000000000D+02
     .360060000000D+05  .400000000000D+01
 5 17 12 31 12  0  0.0 -.182371586561D-04  .102318153949D-11  .000000000000D+00
     .680000000000D+02  .238750000000D+02  .539022452449D-08  .532853175862D+00
     .144168734550D-05  .528536783531D-02  .561028718948D-05  .515360592461D+04
     .432000000000D+05  .167638063431D-07  .906927745089D+00  .409781932831D-07
     .947164105804D+00  .262031250000D+03  .631274586960D+00 -.848392481809D-08
     .325370695853D-09  .100000000000D+01  .198200000000D+04  .000000000000D+00
     .240000000000D+01  .000000000000D+00 -.107102096081D-07  .680000000000D+02
     .360060000000D+05  .400000000000D+01
 6 17 12 31 12  0  0.0  .414263457060D-03  .568434188608D-12  .000000000000D+00
     .930000000000D+02 -.621875000000D+02  .411267130927D-08 -.216086473198D+01
    -.315532088280D-05  .909922993742D-03  .122785568237D-04  .515355147171D+04
     .432000000000D+05 -.167638063431D-07 -.123919545106D+00  .204890966415D-07
     .969851350979D+00  .148718750000D+03 -.127581977780D+01 -.767889128522D-08
     .409659921123D-09  .100000000000D+01  .198200000000D+04  .000000000000D+00
     .240000000000D+01  .000000000000D+00  .465661287308D-08  .930000000000D+02
     .360060000000D+05  .400000000000D+01
 7 17 12 31 12  0  0.0  .258248299360D-03 -.534328137292D-11  .000000000000D+00
     .500000000000D+01  .114468750000D+03  .408374153280D-08 -.309115758289D+01
     .584684312344D-05  .111045842059D-01  .121332705021D-04  .515370941734D+04
     .432000000000D+05 -.298023223877D-07  .303977555801D+01 -.119209289551D-06
     .960467713118D+00  .144625000000D+03 -.254665299452D+01 -.758424448565D-08
    -.417874549009D-10  .100000000000D+01  .198200000000D+04  .000000000000D+00
     .240000000000D+01  .000000000000D+00 -.111758708954D-07  .500000000000D+01
     .360060000000D+05  .400000000000D+01
 8 17 12 31 12  0  0.0 -.860430300236D-04 -.136424205266D-11  .000000000000D+00
     .500000000000D+01 -.152281250000D+03  .441446959466D-08  .243707391162D+00
    -.793859362602D-05  .312550214585D-02  .382959842682D-05  .515374420547D+04
     .432000000000D+05  .894069671631D-07 -.117954357954D+01 -.372529029846D-07
     .968236636131D+00  .309218750000D+03 -.610296410461D+00 -.834356182855D-08
    -.339657005220D-09  .100000000000D+01  .198200000000D+04  .000000000000D+00
     .240000000000D+01  .000000000000D+00  .558793544769D-08  .500000000000D+01
     .360060000000D+05  .400000000000D+01
12 17 12 31 12  0  0.0  .357784796506D-03 -.181898940355D-11  .000000000000D+00
     .660000000000D+02  .698750000000D+02  .409659921123D-08  .260718968133D+01
     .356324017048D-05  .672268972266D-02  .689178705215D-06  .515366687393D+04
     .432000000000D+05  .707805156708D-07 -.215442947970D+01 -.134110450745D-06
     .987739399768D+00  .379937500000D+03  .910453762408D+00 -.815033949435D-08
     .266439669710D-09  .100000000000D+01  .198200000000D+04  .000000000000D+00
     .240000000000D+01  .000000000000D+00 -.125728547573D-07  .660000000000D+02
     .360060000000D+05  .400000000000D+01
13 17 12 31 12  0  0.0 -.950978137553D-04 -.227373675443D-12  .000000000000D+00
     .810000000000D+02 -.185312500000D+02  .437803950578D-08 -.171407900879D+01
    -.103935599327D-05  .370075658429D-02  .936351716518D-05  .515365790367D+04
     .432000000000D+05  .167638063431D-07  .209138226747D+01  .154599547386D-06
     .968567289264D+00  .203000000000D+03  .164771358675D+01 -.782925469131D-08
    -.766817655319D-09  .100000000000D+01  .198200000000D+04  .000000000000D+00
     .240000000000D+01  .000000000000D+00 -.116415321827D-07  .810000000000D+02
     .360060000000D+05  .400000000000D+01
14 17 12 31 12  0  0.0 -.915792770684D-04 -.682121026330D-12  .000000000000D+00
     .200000000000D+01 -.180000000000D+02  .473841165958D-08 -.555414728579D+00
    -.948086380959D-06  .925272610039D-02  .922568142414D-05  .515372113419D+04
     .432000000000D+05 -.409781932831D-07  .205046729563D+01  .651925802231D-07
     .961068595016D+00  .203562500000D+03 -.195571478506D+01 -.817462622028D-08
    -.815391107170D-09  .100000000000D+01  .198200000000D+04  .000000000000D+00
     .240000000000D+01  .000000000000D+00 -.977888703346D-08  .200000000000D+01
     .360060000000D+05  .400000000000D+01
15 17 12 31 12  0  0.0 -.357407145202D-03  .000000000000D+00  .000000000000D+00
     .600000000000D+02 -.288125000000D+02  .552380151708D-08 -.108316559728D+01
    -.149570405483D-05  .100932990899D-01  .747852027416D-05  .515366039848D+04
     .432000000000D+05  .251457095146D-06  .189481781518D+01  .931322574615D-07
     .928125556795D+00  .216312500000D+03  .655763835607D+00 -.843999441679D-08
    -.665027701073D-09  .100000000000D+01  .198200000000D+04  .000000000000D+00
     .240000000000D+01  .000000000000D+00 -.107102096081D-07  .600000000000D+02
     .360060000000D+05  .400000000000D+01
